ONEWEB-0258             
1 48976U 21060K   26202.07497555  .00000110  00000+0  25450-3 0  9997
2 48976  87.9080 222.0517 0002119  93.1858 266.9516 13.16592361244051
ONEWEB-0259             
1 48977U 21060L   26202.29665426  .00000005  00000+0 -20158-4 0  9991
2 48977  87.9078 222.0064 0002270  93.4350 266.7041 13.16594359244111
ONEWEB-0260             
1 48978U 21060M   26202.28792751  .00000090  00000+0  20285-3 0  9996
2 48978  87.9076 222.0081 0001697  96.0914 264.0411 13.16593181244097
ONEWEB-0261             
1 48979U 21060N   26202.10587577  .00000043  00000+0  78038-4 0  9994
2 48979  87.9073 222.0452 0002108 101.3248 258.8120 13.16594302244123
ONEWEB-0262             
1 48980U 21060P   26202.31406952 -.00000046  00000+0 -15285-3 0  9995
2 48980  87.9077 221.9907 0002338  92.5003 267.6396 13.16594515244115
ONEWEB-0263             
1 48981U 21060Q   26202.11774351  .00000055  00000+0  11059-3 0  9998
2 48981  87.9077 222.0417 0002259 100.6073 259.5312 13.16593912244055
ONEWEB-0264             
1 48982U 21060R   26202.30693709 -.00000038  00000+0 -13420-3 0  9994
2 48982  87.9074 222.0057 0001999  97.9975 262.1383 13.16592985244082
ONEWEB-0266             
1 48984U 21060T   26202.10030872 -.00000025  00000+0 -10011-3 0  9999
2 48984  87.9076 222.0386 0002079  90.2139 269.9230 13.16596092244044
ONEWEB-0267             
1 48985U 21060U   26202.03541446 -.00000017  00000+0 -77962-4 0  9996
2 48985  87.9078 222.0484 0002086  98.5211 261.6157 13.16594016244047
ONEWEB-0268             
1 48986U 21060V   26202.30772101 -.00000007  00000+0 -51426-4 0  9997
2 48986  87.9080 222.0034 0001936  92.0619 268.0734 13.16594205244341
ONEWEB-0269             
1 48987U 21060W   26202.06074555  .00000061  00000+0  12584-3 0  9998
2 48987  87.9075 222.0525 0001906  88.7132 271.4217 13.16594572244082
ONEWEB-0270             
1 48988U 21060X   26202.07814598  .00000023  00000+0  26431-4 0  9994
2 48988  87.9078 222.0512 0002376  97.4912 262.6489 13.16593125244128
ONEWEB-0271             
1 48989U 21060Y   26202.06549667  .00000072  00000+0  15441-3 0  9998
2 48989  87.9077 222.0427 0002185  98.6273 261.5105 13.16594870244125
ONEWEB-0272             
1 48990U 21060Z   26202.08764873 -.00000068  00000+0 -21157-3 0  9998
2 48990  87.9071 222.0490 0001845  98.7209 261.4131 13.16595935244078
ONEWEB-0273             
1 48991U 21060AA  26202.10980581 -.00000121  00000+0 -35034-3 0  9997
2 48991  87.9071 222.0452 0002126  94.9099 265.2275 13.16593930244057
ONEWEB-0274             
1 48992U 21060AB  26202.28713438  .00000035  00000+0  58128-4 0  9994
2 48992  87.9069 222.0098 0001769  97.1820 262.9512 13.16595421244112
