{"fetched_at":"2026-07-21T17:53:05.430Z","source":"https://celestrak.org/NORAD/elements/gp.php?GROUP=oneweb&FORMAT=JSON","constellation":"oneweb","records":[{"OBJECT_NAME":"ONEWEB-0258","OBJECT_ID":"2021-060K","EPOCH":"2026-07-21T01:47:57.887520","CLASSIFICATION_TYPE":"U","MEAN_MOTION":13.16592361,"ECCENTRICITY":0.00021194,"INCLINATION":87.908,"RA_OF_ASC_NODE":222.0517,"ARG_OF_PERICENTER":93.1858,"MEAN_ANOMALY":266.9516,"EPHEMERIS_TYPE":0,"NORAD_CAT_ID":48976,"ELEMENT_SET_NO":999,"REV_AT_EPOCH":24405,"BSTAR":0.00025449595,"MEAN_MOTION_DOT":0.0000011,"MEAN_MOTION_DDOT":0},{"OBJECT_NAME":"ONEWEB-0259","OBJECT_ID":"2021-060L","EPOCH":"2026-07-21T07:07:10.928064","CLASSIFICATION_TYPE":"U","MEAN_MOTION":13.16594359,"ECCENTRICITY":0.00022707,"INCLINATION":87.9078,"RA_OF_ASC_NODE":222.0064,"ARG_OF_PERICENTER":93.435,"MEAN_ANOMALY":266.7041,"EPHEMERIS_TYPE":0,"NORAD_CAT_ID":48977,"ELEMENT_SET_NO":999,"REV_AT_EPOCH":24411,"BSTAR":-0.000020158235,"MEAN_MOTION_DOT":5e-8,"MEAN_MOTION_DDOT":0},{"OBJECT_NAME":"ONEWEB-0260","OBJECT_ID":"2021-060M","EPOCH":"2026-07-21T06:54:36.936864","CLASSIFICATION_TYPE":"U","MEAN_MOTION":13.16593181,"ECCENTRICITY":0.00016977,"INCLINATION":87.9076,"RA_OF_ASC_NODE":222.0081,"ARG_OF_PERICENTER":96.0914,"MEAN_ANOMALY":264.0411,"EPHEMERIS_TYPE":0,"NORAD_CAT_ID":48978,"ELEMENT_SET_NO":999,"REV_AT_EPOCH":24409,"BSTAR":0.00020284731,"MEAN_MOTION_DOT":9e-7,"MEAN_MOTION_DDOT":0},{"OBJECT_NAME":"ONEWEB-0261","OBJECT_ID":"2021-060N","EPOCH":"2026-07-21T02:32:27.666528","CLASSIFICATION_TYPE":"U","MEAN_MOTION":13.16594302,"ECCENTRICITY":0.00021081,"INCLINATION":87.9073,"RA_OF_ASC_NODE":222.0452,"ARG_OF_PERICENTER":101.3248,"MEAN_ANOMALY":258.812,"EPHEMERIS_TYPE":0,"NORAD_CAT_ID":48979,"ELEMENT_SET_NO":999,"REV_AT_EPOCH":24412,"BSTAR":0.000078038104,"MEAN_MOTION_DOT":4.3e-7,"MEAN_MOTION_DDOT":0},{"OBJECT_NAME":"ONEWEB-0262","OBJECT_ID":"2021-060P","EPOCH":"2026-07-21T07:32:15.606528","CLASSIFICATION_TYPE":"U","MEAN_MOTION":13.16594515,"ECCENTRICITY":0.00023388,"INCLINATION":87.9077,"RA_OF_ASC_NODE":221.9907,"ARG_OF_PERICENTER":92.5003,"MEAN_ANOMALY":267.6396,"EPHEMERIS_TYPE":0,"NORAD_CAT_ID":48980,"ELEMENT_SET_NO":999,"REV_AT_EPOCH":24411,"BSTAR":-0.00015284701,"MEAN_MOTION_DOT":-4.6e-7,"MEAN_MOTION_DDOT":0},{"OBJECT_NAME":"ONEWEB-0263","OBJECT_ID":"2021-060Q","EPOCH":"2026-07-21T02:49:33.039264","CLASSIFICATION_TYPE":"U","MEAN_MOTION":13.16593912,"ECCENTRICITY":0.0002259,"INCLINATION":87.9077,"RA_OF_ASC_NODE":222.0417,"ARG_OF_PERICENTER":100.6073,"MEAN_ANOMALY":259.5312,"EPHEMERIS_TYPE":0,"NORAD_CAT_ID":48981,"ELEMENT_SET_NO":999,"REV_AT_EPOCH":24405,"BSTAR":0.00011058906,"MEAN_MOTION_DOT":5.5e-7,"MEAN_MOTION_DDOT":0},{"OBJECT_NAME":"ONEWEB-0264","OBJECT_ID":"2021-060R","EPOCH":"2026-07-21T07:21:59.364576","CLASSIFICATION_TYPE":"U","MEAN_MOTION":13.16592985,"ECCENTRICITY":0.00019991,"INCLINATION":87.9074,"RA_OF_ASC_NODE":222.0057,"ARG_OF_PERICENTER":97.9975,"MEAN_ANOMALY":262.1383,"EPHEMERIS_TYPE":0,"NORAD_CAT_ID":48982,"ELEMENT_SET_NO":999,"REV_AT_EPOCH":24408,"BSTAR":-0.00013419833,"MEAN_MOTION_DOT":-3.8e-7,"MEAN_MOTION_DDOT":0},{"OBJECT_NAME":"ONEWEB-0266","OBJECT_ID":"2021-060T","EPOCH":"2026-07-21T02:24:26.673408","CLASSIFICATION_TYPE":"U","MEAN_MOTION":13.16596092,"ECCENTRICITY":0.00020799,"INCLINATION":87.9076,"RA_OF_ASC_NODE":222.0386,"ARG_OF_PERICENTER":90.2139,"MEAN_ANOMALY":269.923,"EPHEMERIS_TYPE":0,"NORAD_CAT_ID":48984,"ELEMENT_SET_NO":999,"REV_AT_EPOCH":24404,"BSTAR":-0.00010010873,"MEAN_MOTION_DOT":-2.5e-7,"MEAN_MOTION_DDOT":0},{"OBJECT_NAME":"ONEWEB-0267","OBJECT_ID":"2021-060U","EPOCH":"2026-07-21T00:50:59.809344","CLASSIFICATION_TYPE":"U","MEAN_MOTION":13.16594016,"ECCENTRICITY":0.00020866,"INCLINATION":87.9078,"RA_OF_ASC_NODE":222.0484,"ARG_OF_PERICENTER":98.5211,"MEAN_ANOMALY":261.6157,"EPHEMERIS_TYPE":0,"NORAD_CAT_ID":48985,"ELEMENT_SET_NO":999,"REV_AT_EPOCH":24404,"BSTAR":-0.00007796177,"MEAN_MOTION_DOT":-1.7e-7,"MEAN_MOTION_DDOT":0},{"OBJECT_NAME":"ONEWEB-0268","OBJECT_ID":"2021-060V","EPOCH":"2026-07-21T07:23:07.095264","CLASSIFICATION_TYPE":"U","MEAN_MOTION":13.16594205,"ECCENTRICITY":0.0001936,"INCLINATION":87.908,"RA_OF_ASC_NODE":222.0034,"ARG_OF_PERICENTER":92.0619,"MEAN_ANOMALY":268.0734,"EPHEMERIS_TYPE":0,"NORAD_CAT_ID":48986,"ELEMENT_SET_NO":999,"REV_AT_EPOCH":24434,"BSTAR":-0.000051426218,"MEAN_MOTION_DOT":-7e-8,"MEAN_MOTION_DDOT":0},{"OBJECT_NAME":"ONEWEB-0269","OBJECT_ID":"2021-060W","EPOCH":"2026-07-21T01:27:28.415520","CLASSIFICATION_TYPE":"U","MEAN_MOTION":13.16594572,"ECCENTRICITY":0.00019069,"INCLINATION":87.9075,"RA_OF_ASC_NODE":222.0525,"ARG_OF_PERICENTER":88.7132,"MEAN_ANOMALY":271.4217,"EPHEMERIS_TYPE":0,"NORAD_CAT_ID":48987,"ELEMENT_SET_NO":999,"REV_AT_EPOCH":24408,"BSTAR":0.00012583786,"MEAN_MOTION_DOT":6.1e-7,"MEAN_MOTION_DDOT":0},{"OBJECT_NAME":"ONEWEB-0270","OBJECT_ID":"2021-060X","EPOCH":"2026-07-21T01:52:31.812672","CLASSIFICATION_TYPE":"U","MEAN_MOTION":13.16593125,"ECCENTRICITY":0.00023765,"INCLINATION":87.9078,"RA_OF_ASC_NODE":222.0512,"ARG_OF_PERICENTER":97.4912,"MEAN_ANOMALY":262.6489,"EPHEMERIS_TYPE":0,"NORAD_CAT_ID":48988,"ELEMENT_SET_NO":999,"REV_AT_EPOCH":24412,"BSTAR":0.000026431469,"MEAN_MOTION_DOT":2.3e-7,"MEAN_MOTION_DDOT":0},{"OBJECT_NAME":"ONEWEB-0271","OBJECT_ID":"2021-060Y","EPOCH":"2026-07-21T01:34:18.912288","CLASSIFICATION_TYPE":"U","MEAN_MOTION":13.1659487,"ECCENTRICITY":0.00021851,"INCLINATION":87.9077,"RA_OF_ASC_NODE":222.0427,"ARG_OF_PERICENTER":98.6273,"MEAN_ANOMALY":261.5105,"EPHEMERIS_TYPE":0,"NORAD_CAT_ID":48989,"ELEMENT_SET_NO":999,"REV_AT_EPOCH":24412,"BSTAR":0.00015441159,"MEAN_MOTION_DOT":7.2e-7,"MEAN_MOTION_DDOT":0},{"OBJECT_NAME":"ONEWEB-0272","OBJECT_ID":"2021-060Z","EPOCH":"2026-07-21T02:06:12.850272","CLASSIFICATION_TYPE":"U","MEAN_MOTION":13.16595935,"ECCENTRICITY":0.00018456,"INCLINATION":87.9071,"RA_OF_ASC_NODE":222.049,"ARG_OF_PERICENTER":98.7209,"MEAN_ANOMALY":261.4131,"EPHEMERIS_TYPE":0,"NORAD_CAT_ID":48990,"ELEMENT_SET_NO":999,"REV_AT_EPOCH":24407,"BSTAR":-0.00021156944,"MEAN_MOTION_DOT":-6.8e-7,"MEAN_MOTION_DDOT":0},{"OBJECT_NAME":"ONEWEB-0273","OBJECT_ID":"2021-060AA","EPOCH":"2026-07-21T02:38:07.221984","CLASSIFICATION_TYPE":"U","MEAN_MOTION":13.1659393,"ECCENTRICITY":0.00021269,"INCLINATION":87.9071,"RA_OF_ASC_NODE":222.0452,"ARG_OF_PERICENTER":94.9099,"MEAN_ANOMALY":265.2275,"EPHEMERIS_TYPE":0,"NORAD_CAT_ID":48991,"ELEMENT_SET_NO":999,"REV_AT_EPOCH":24405,"BSTAR":-0.0003503401,"MEAN_MOTION_DOT":-0.00000121,"MEAN_MOTION_DDOT":0},{"OBJECT_NAME":"ONEWEB-0274","OBJECT_ID":"2021-060AB","EPOCH":"2026-07-21T06:53:28.410432","CLASSIFICATION_TYPE":"U","MEAN_MOTION":13.16595421,"ECCENTRICITY":0.00017699,"INCLINATION":87.9069,"RA_OF_ASC_NODE":222.0098,"ARG_OF_PERICENTER":97.182,"MEAN_ANOMALY":262.9512,"EPHEMERIS_TYPE":0,"NORAD_CAT_ID":48992,"ELEMENT_SET_NO":999,"REV_AT_EPOCH":24411,"BSTAR":0.000058127796,"MEAN_MOTION_DOT":3.5e-7,"MEAN_MOTION_DDOT":0}]}
